[
  {
    "OBJECT_NAME": "IRIDIUM 118",
    "OBJECT_ID": "2017-039E",
    "EPOCH": "2026-07-06T20:22:10.860384",
    "MEAN_MOTION": 14.34218219,
    "ECCENTRICITY": 0.0002182,
    "INCLINATION": 86.3985,
    "RA_OF_ASC_NODE": 345.4153,
    "ARG_OF_PERICENTER": 89.7993,
    "MEAN_ANOMALY": 270.3453,
    "EPHEMERIS_TYPE": 0,
    "CLASSIFICATION_TYPE": "U",
    "NORAD_CAT_ID": 42807,
    "ELEMENT_SET_NO": 999,
    "REV_AT_EPOCH": 47276,
    "BSTAR": 0.000017118,
    "MEAN_MOTION_DOT": 6.8e-7,
    "MEAN_MOTION_DDOT": 0
  },
  {
    "OBJECT_NAME": "IRIDIUM 117",
    "OBJECT_ID": "2017-039F",
    "EPOCH": "2026-07-06T20:49:34.472640",
    "MEAN_MOTION": 14.34220049,
    "ECCENTRICITY": 0.0002101,
    "INCLINATION": 86.3983,
    "RA_OF_ASC_NODE": 345.3646,
    "ARG_OF_PERICENTER": 91.8886,
    "MEAN_ANOMALY": 268.255,
    "EPHEMERIS_TYPE": 0,
    "CLASSIFICATION_TYPE": "U",
    "NORAD_CAT_ID": 42808,
    "ELEMENT_SET_NO": 999,
    "REV_AT_EPOCH": 47279,
    "BSTAR": 0.000062131,
    "MEAN_MOTION_DOT": 0.00000194,
    "MEAN_MOTION_DDOT": 0
  },
  {
    "OBJECT_NAME": "IRIDIUM 126",
    "OBJECT_ID": "2017-039G",
    "EPOCH": "2026-07-06T11:23:18.839040",
    "MEAN_MOTION": 14.34217986,
    "ECCENTRICITY": 0.0002134,
    "INCLINATION": 86.3984,
    "RA_OF_ASC_NODE": 345.5799,
    "ARG_OF_PERICENTER": 87.3863,
    "MEAN_ANOMALY": 272.7577,
    "EPHEMERIS_TYPE": 0,
    "CLASSIFICATION_TYPE": "U",
    "NORAD_CAT_ID": 42809,
    "ELEMENT_SET_NO": 999,
    "REV_AT_EPOCH": 47271,
    "BSTAR": 0.000030163,
    "MEAN_MOTION_DOT": 0.00000104,
    "MEAN_MOTION_DDOT": 0
  },
  {
    "OBJECT_NAME": "IRIDIUM 124",
    "OBJECT_ID": "2017-039H",
    "EPOCH": "2026-07-06T16:09:08.338752",
    "MEAN_MOTION": 14.43282836,
    "ECCENTRICITY": 0.0002267,
    "INCLINATION": 86.4487,
    "RA_OF_ASC_NODE": 282.2116,
    "ARG_OF_PERICENTER": 96.5466,
    "MEAN_ANOMALY": 263.5993,
    "EPHEMERIS_TYPE": 0,
    "CLASSIFICATION_TYPE": "U",
    "NORAD_CAT_ID": 42810,
    "ELEMENT_SET_NO": 999,
    "REV_AT_EPOCH": 47792,
    "BSTAR": 0.000095922,
    "MEAN_MOTION_DOT": 0.00000343,
    "MEAN_MOTION_DDOT": 0
  },
  {
    "OBJECT_NAME": "IRIDIUM 128",
    "OBJECT_ID": "2017-039J",
    "EPOCH": "2026-07-06T14:30:54.453024",
    "MEAN_MOTION": 14.34219419,
    "ECCENTRICITY": 0.0002211,
    "INCLINATION": 86.3962,
    "RA_OF_ASC_NODE": 17.0296,
    "ARG_OF_PERICENTER": 92.6222,
    "MEAN_ANOMALY": 267.5227,
    "EPHEMERIS_TYPE": 0,
    "CLASSIFICATION_TYPE": "U",
    "NORAD_CAT_ID": 42811,
    "ELEMENT_SET_NO": 999,
    "REV_AT_EPOCH": 47276,
    "BSTAR": 0.000070737,
    "MEAN_MOTION_DOT": 0.00000218,
    "MEAN_MOTION_DDOT": 0
  },
  {
    "OBJECT_NAME": "IRIDIUM 121",
    "OBJECT_ID": "2017-039K",
    "EPOCH": "2026-07-06T20:13:02.845920",
    "MEAN_MOTION": 14.3421828,
    "ECCENTRICITY": 0.0002224,
    "INCLINATION": 86.3985,
    "RA_OF_ASC_NODE": 345.4546,
    "ARG_OF_PERICENTER": 92.4805,
    "MEAN_ANOMALY": 267.6645,
    "EPHEMERIS_TYPE": 0,
    "CLASSIFICATION_TYPE": "U",
    "NORAD_CAT_ID": 42812,
    "ELEMENT_SET_NO": 999,
    "REV_AT_EPOCH": 47264,
    "BSTAR": 0.000020544,
    "MEAN_MOTION_DOT": 7.7e-7,
    "MEAN_MOTION_DDOT": 0
  },
  {
    "OBJECT_NAME": "IRIDIUM 133",
    "OBJECT_ID": "2017-061A",
    "EPOCH": "2026-07-06T13:36:06.443136",
    "MEAN_MOTION": 14.34219284,
    "ECCENTRICITY": 0.0002179,
    "INCLINATION": 86.3962,
    "RA_OF_ASC_NODE": 17.1635,
    "ARG_OF_PERICENTER": 91.4135,
    "MEAN_ANOMALY": 268.731,
    "EPHEMERIS_TYPE": 0,
    "CLASSIFICATION_TYPE": "U",
    "NORAD_CAT_ID": 42955,
    "ELEMENT_SET_NO": 999,
    "REV_AT_EPOCH": 45755,
    "BSTAR": 0.00003019,
    "MEAN_MOTION_DOT": 0.00000104,
    "MEAN_MOTION_DDOT": 0
  },
  {
    "OBJECT_NAME": "IRIDIUM 100",
    "OBJECT_ID": "2017-061B",
    "EPOCH": "2026-07-06T18:28:22.608768",
    "MEAN_MOTION": 14.34218294,
    "ECCENTRICITY": 0.0002197,
    "INCLINATION": 86.3962,
    "RA_OF_ASC_NODE": 16.9971,
    "ARG_OF_PERICENTER": 89.8241,
    "MEAN_ANOMALY": 270.3206,
    "EPHEMERIS_TYPE": 0,
    "CLASSIFICATION_TYPE": "U",
    "NORAD_CAT_ID": 42956,
    "ELEMENT_SET_NO": 999,
    "REV_AT_EPOCH": 45758,
    "BSTAR": 0.000018849,
    "MEAN_MOTION_DOT": 7.3e-7,
    "MEAN_MOTION_DDOT": 0
  },
  {
    "OBJECT_NAME": "IRIDIUM 122",
    "OBJECT_ID": "2017-061C",
    "EPOCH": "2026-07-06T14:21:46.495584",
    "MEAN_MOTION": 14.34218834,
    "ECCENTRICITY": 0.0002093,
    "INCLINATION": 86.3962,
    "RA_OF_ASC_NODE": 17.0692,
    "ARG_OF_PERICENTER": 87.6313,
    "MEAN_ANOMALY": 272.5122,
    "EPHEMERIS_TYPE": 0,
    "CLASSIFICATION_TYPE": "U",
    "NORAD_CAT_ID": 42957,
    "ELEMENT_SET_NO": 999,
    "REV_AT_EPOCH": 45756,
    "BSTAR": 0.000036078,
    "MEAN_MOTION_DOT": 0.00000121,
    "MEAN_MOTION_DDOT": 0
  },
  {
    "OBJECT_NAME": "IRIDIUM 129",
    "OBJECT_ID": "2017-061D",
    "EPOCH": "2026-07-06T18:19:14.265120",
    "MEAN_MOTION": 14.34220117,
    "ECCENTRICITY": 0.0002249,
    "INCLINATION": 86.3964,
    "RA_OF_ASC_NODE": 17.0673,
    "ARG_OF_PERICENTER": 83.6016,
    "MEAN_ANOMALY": 276.5436,
    "EPHEMERIS_TYPE": 0,
    "CLASSIFICATION_TYPE": "U",
    "NORAD_CAT_ID": 42958,
    "ELEMENT_SET_NO": 999,
    "REV_AT_EPOCH": 45760,
    "BSTAR": 0.000067612,
    "MEAN_MOTION_DOT": 0.00000209,
    "MEAN_MOTION_DDOT": 0
  },
  {
    "OBJECT_NAME": "IRIDIUM 119",
    "OBJECT_ID": "2017-061E",
    "EPOCH": "2026-07-06T14:12:38.404224",
    "MEAN_MOTION": 14.34219065,
    "ECCENTRICITY": 0.0002099,
    "INCLINATION": 86.3963,
    "RA_OF_ASC_NODE": 17.1348,
    "ARG_OF_PERICENTER": 86.8359,
    "MEAN_ANOMALY": 273.3077,
    "EPHEMERIS_TYPE": 0,
    "CLASSIFICATION_TYPE": "U",
    "NORAD_CAT_ID": 42959,
    "ELEMENT_SET_NO": 999,
    "REV_AT_EPOCH": 45759,
    "BSTAR": 0.000053517,
    "MEAN_MOTION_DOT": 0.0000017,
    "MEAN_MOTION_DDOT": 0
  },
  {
    "OBJECT_NAME": "IRIDIUM 107",
    "OBJECT_ID": "2017-061F",
    "EPOCH": "2026-07-06T14:40:02.360352",
    "MEAN_MOTION": 14.34219214,
    "ECCENTRICITY": 0.0001989,
    "INCLINATION": 86.3963,
    "RA_OF_ASC_NODE": 17.1482,
    "ARG_OF_PERICENTER": 93.0233,
    "MEAN_ANOMALY": 267.119,
    "EPHEMERIS_TYPE": 0,
    "CLASSIFICATION_TYPE": "U",
    "NORAD_CAT_ID": 42960,
    "ELEMENT_SET_NO": 999,
    "REV_AT_EPOCH": 45760,
    "BSTAR": 0.000069099,
    "MEAN_MOTION_DOT": 0.00000213,
    "MEAN_MOTION_DDOT": 0
  },
  {
    "OBJECT_NAME": "IRIDIUM 132",
    "OBJECT_ID": "2017-061G",
    "EPOCH": "2026-07-06T14:49:10.246080",
    "MEAN_MOTION": 14.34220153,
    "ECCENTRICITY": 0.000214,
    "INCLINATION": 86.3962,
    "RA_OF_ASC_NODE": 17.1248,
    "ARG_OF_PERICENTER": 88.5225,
    "MEAN_ANOMALY": 271.6216,
    "EPHEMERIS_TYPE": 0,
    "CLASSIFICATION_TYPE": "U",
    "NORAD_CAT_ID": 42961,
    "ELEMENT_SET_NO": 999,
    "REV_AT_EPOCH": 45760,
    "BSTAR": 0.000067994,
    "MEAN_MOTION_DOT": 0.0000021,
    "MEAN_MOTION_DDOT": 0
  },
  {
    "OBJECT_NAME": "IRIDIUM 136",
    "OBJECT_ID": "2017-061H",
    "EPOCH": "2026-07-06T13:54:22.639680",
    "MEAN_MOTION": 14.34218102,
    "ECCENTRICITY": 0.0002249,
    "INCLINATION": 86.3965,
    "RA_OF_ASC_NODE": 17.1478,
    "ARG_OF_PERICENTER": 89.6202,
    "MEAN_ANOMALY": 270.5252,
    "EPHEMERIS_TYPE": 0,
    "CLASSIFICATION_TYPE": "U",
    "NORAD_CAT_ID": 42962,
    "ELEMENT_SET_NO": 999,
    "REV_AT_EPOCH": 45761,
    "BSTAR": 0.0000071869,
    "MEAN_MOTION_DOT": 4e-7,
    "MEAN_MOTION_DDOT": 0
  }
]