IRIDIUM 118             
1 42807U 17039E   26187.84873681  .00000068  00000+0  17118-4 0  9995
2 42807  86.3985 345.4153 0002182  89.7993 270.3453 14.34218219472760
IRIDIUM 117             
1 42808U 17039F   26187.86776010  .00000194  00000+0  62131-4 0  9991
2 42808  86.3983 345.3646 0002101  91.8886 268.2550 14.34220049472792
IRIDIUM 126             
1 42809U 17039G   26187.47452360  .00000104  00000+0  30163-4 0  9999
2 42809  86.3984 345.5799 0002134  87.3863 272.7577 14.34217986472713
IRIDIUM 124             
1 42810U 17039H   26187.67301318  .00000343  00000+0  95922-4 0  9998
2 42810  86.4487 282.2116 0002267  96.5466 263.5993 14.43282836477926
IRIDIUM 128             
1 42811U 17039J   26187.60479691  .00000218  00000+0  70737-4 0  9990
2 42811  86.3962  17.0296 0002211  92.6222 267.5227 14.34219419472761
IRIDIUM 121             
1 42812U 17039K   26187.84239405  .00000077  00000+0  20544-4 0  9998
2 42812  86.3985 345.4546 0002224  92.4805 267.6645 14.34218280472649
IRIDIUM 133             
1 42955U 17061A   26187.56674124  .00000104  00000+0  30190-4 0  9990
2 42955  86.3962  17.1635 0002179  91.4135 268.7310 14.34219284457557
IRIDIUM 100             
1 42956U 17061B   26187.76970612  .00000073  00000+0  18849-4 0  9996
2 42956  86.3962  16.9971 0002197  89.8241 270.3206 14.34218294457583
IRIDIUM 122             
1 42957U 17061C   26187.59845481  .00000121  00000+0  36078-4 0  9991
2 42957  86.3962  17.0692 0002093  87.6313 272.5122 14.34218834457566
IRIDIUM 129             
1 42958U 17061D   26187.76335955  .00000209  00000+0  67612-4 0  9996
2 42958  86.3964  17.0673 0002249  83.6016 276.5436 14.34220117457601
IRIDIUM 119             
1 42959U 17061E   26187.59211116  .00000170  00000+0  53517-4 0  9996
2 42959  86.3963  17.1348 0002099  86.8359 273.3077 14.34219065457593
IRIDIUM 107             
1 42960U 17061F   26187.61113843  .00000213  00000+0  69099-4 0  9999
2 42960  86.3963  17.1482 0001989  93.0233 267.1190 14.34219214457607
IRIDIUM 132             
1 42961U 17061G   26187.61747970  .00000210  00000+0  67994-4 0  9993
2 42961  86.3962  17.1248 0002140  88.5225 271.6216 14.34220153457600
IRIDIUM 136             
1 42962U 17061H   26187.57942870  .00000040  00000+0  71869-5 0  9993
2 42962  86.3965  17.1478 0002249  89.6202 270.5252 14.34218102457616
